[{"OBJECT_NAME":"STARLINK-30506","OBJECT_ID":"2023-158X","EPOCH":"2026-03-09T22:07:09.098112","MEAN_MOTION":15.27579932,"ECCENTRICITY":5.024e-5,"INCLINATION":42.9941,"RA_OF_ASC_NODE":25.8767,"ARG_OF_PERICENTER":174.9966,"MEAN_ANOMALY":185.0891,"EPHEMERIS_TYPE":0,"CLASSIFICATION_TYPE":"U","NORAD_CAT_ID":58072,"ELEMENT_SET_NO":999,"REV_AT_EPOCH":13360,"BSTAR":0.0005704728,"MEAN_MOTION_DOT":0.00015469,"MEAN_MOTION_DDOT":0},{"OBJECT_NAME":"CZ-6A DEB","OBJECT_ID":"2022-151ME","EPOCH":"2026-03-09T17:07:50.636064","MEAN_MOTION":15.20556855,"ECCENTRICITY":0.00283971,"INCLINATION":98.6182,"RA_OF_ASC_NODE":149.2426,"ARG_OF_PERICENTER":178.5587,"MEAN_ANOMALY":181.5732,"EPHEMERIS_TYPE":0,"CLASSIFICATION_TYPE":"U","NORAD_CAT_ID":54578,"ELEMENT_SET_NO":999,"REV_AT_EPOCH":10518,"BSTAR":0.0077423675,"MEAN_MOTION_DOT":0.00175116,"MEAN_MOTION_DDOT":0}]
